OBJECT_NAME,OBJECT_ID,EPOCH,MEAN_MOTION,ECCENTRICITY,INCLINATION,RA_OF_ASC_NODE,ARG_OF_PERICENTER,MEAN_ANOMALY,EPHEMERIS_TYPE,CLASSIFICATION_TYPE,NORAD_CAT_ID,ELEMENT_SET_NO,REV_AT_EPOCH,BSTAR,MEAN_MOTION_DOT,MEAN_MOTION_DDOT
NIMIQ 2,2002-062A,2026-07-12T14:42:15.050016,1.00270148,.0005251,9.5024,56.6251,53.5734,291.6630,0,U,27632,999,4443,0,-.77E-6,0
USA 167,2003-008A,2026-07-12T05:44:38.620032,1.00270391,.0003323,11.0090,43.1794,309.3979,261.9864,0,U,27691,999,702,0,-.3E-7,0
USA 169 (MILSTAR-2 4),2003-012A,2026-07-12T11:17:39.819264,1.00273573,.00992567,12.3864,29.6308,10.1730,212.1097,0,U,27711,999,3320,0,-.204E-5,0
ASIASAT 4,2003-014A,2026-07-12T11:03:20.827872,1.00270354,.00029082,4.7666,75.4291,37.1528,131.1419,0,U,27718,999,4555,0,-.226E-5,0
HELLAS-SAT 2,2003-020A,2026-07-12T10:02:29.542272,1.00271316,.00034968,7.4147,67.5792,80.1661,283.1588,0,U,27811,999,4310,0,-.9E-6,0
THURAYA-2,2003-026A,2026-07-12T17:08:28.449024,1.00272897,.0002546,8.8779,31.8585,24.4409,175.4260,0,U,27825,999,8460,0,.118E-5,0
OPTUS C1,2003-028B,2026-07-12T11:07:38.441568,1.00269392,.00051919,6.9502,69.1002,39.8646,144.0159,0,U,27831,999,5331,0,-.158E-5,0
USA 170,2003-040A,2026-07-11T19:43:46.143840,1.00274052,.00017612,10.5501,47.7102,81.9616,120.2124,0,U,27875,999,3324,0,.121E-5,0
GALAXY 13 (HORIZONS-1),2003-044A,2026-07-12T17:55:54.261120,1.00270182,.0002151,1.4833,83.5390,25.8486,300.2105,0,U,27954,999,4682,0,.131E-5,0
YAMAL 202,2003-053A,2026-07-12T11:33:38.866176,1.00272147,.00032862,6.4039,70.6302,38.8738,157.8281,0,U,28089,999,8295,0,-.86E-6,0
UFO 11 (USA 174),2003-057A,2026-07-12T20:55:35.196096,1.00270261,.0002665,8.9550,33.6980,91.4203,195.1201,0,U,28117,999,8270,0,-.111E-5,0
USA 176 (DSP 22),2004-004A,2026-07-12T10:29:04.850016,1.00266643,.00011264,12.0954,25.8786,286.0293,86.3069,0,U,28158,999,3319,0,-.303E-5,0
ABS-4 (MOBISAT-1),2004-007A,2026-07-12T18:11:38.812704,1.00272794,.0004617,6.1038,71.6949,41.0425,151.7584,0,U,28184,999,5259,0,.33E-6,0
INTELSAT 10-02,2004-022A,2026-07-12T20:21:00.598176,1.00272095,.0000558,0.0534,253.1014,346.0698,355.8081,0,U,28358,999,8081,0,-.12E-6,0
ANIK F2,2004-027A,2026-07-12T14:41:37.611168,1.00271175,.0003546,3.3507,79.1062,31.1280,289.5466,0,U,28378,999,4151,0,-.53E-6,0
AMC-15,2004-041A,2026-07-12T07:22:38.750880,1.00271234,.00022643,0.0346,304.3045,184.5757,166.9270,0,U,28446,999,7955,0,-.87E-6,0
NSS-10,2005-003A,2026-07-12T11:37:18.341184,1.00270825,.00025815,6.5104,70.1422,38.3504,318.7599,0,U,28526,999,5340,0,-.257E-5,0
INMARSAT 4-F1,2005-009A,2026-07-12T07:47:38.777568,1.00271047,.00024737,5.2012,42.7812,73.2040,109.2466,0,U,28628,999,7792,0,.3E-6,0
DIRECTV 8,2005-019A,2026-07-12T14:39:22.826304,1.00268966,.0002926,0.0142,328.2419,156.8800,266.1680,0,U,28659,999,7732,0,.2E-7,0
GALAXY 28 (G-28),2005-022A,2026-07-12T20:13:38.803008,1.00270767,.0002307,3.3625,78.6177,31.1693,97.2433,0,U,28702,999,5223,0,-.204E-5,0
THAICOM 4,2005-028A,2026-07-12T19:12:42.692832,1.00270927,.0001389,0.3090,85.5406,7.8217,244.9935,0,U,28786,999,5250,0,-.363E-5,0
ANIK F1R,2005-036A,2026-07-12T14:42:45.003168,1.00271300,.0003707,4.3751,76.2633,27.4467,300.1787,0,U,28868,999,4670,0,-.79E-6,0
SYRACUSE 3A,2005-041B,2026-07-12T18:51:53.392032,1.00273066,.0002743,4.7053,75.5251,30.9472,153.8022,0,U,28885,999,7600,0,.124E-5,0
INMARSAT 4-F2,2005-044A,2026-07-12T19:19:34.534848,1.00270758,.0002787,5.1278,43.6557,59.6525,260.7706,0,U,28899,999,7577,0,-.265E-5,0
METEOSAT-9 (MSG-2),2005-049B,2026-07-12T17:08:58.401312,1.00270809,.0002069,9.4169,53.9114,356.4879,183.1097,0,U,28912,999,725,0,.116E-5,0
EUTELSAT 174A,2005-052A,2026-07-12T19:28:18.697728,1.00270482,.0005771,4.2811,76.2091,37.7871,282.7275,0,U,28924,999,5258,0,.3E-7,0
ECHOSTAR 10,2006-003A,2026-07-12T14:41:52.586016,1.00270605,.0001064,0.0354,307.6587,139.5835,313.5489,0,U,28935,999,7471,0,-.55E-6,0
SPAINSAT,2006-007A,2026-07-12T06:40:13.100160,1.00270006,.0004606,0.6256,86.1044,24.6291,249.3073,0,U,28945,999,7446,0,-.216E-5,0
JCSAT-5A,2006-010A,2026-07-12T17:33:41.389056,1.00270416,.000164,1.1729,83.9313,23.9731,218.1742,0,U,29045,999,7402,0,-.329E-5,0
ASTRA 1KR,2006-012A,2026-07-12T20:16:38.845920,1.00269320,.000329,0.5377,83.1795,20.9104,149.8052,0,U,29055,999,4595,0,.117E-5,0
GALAXY 16 (G-16),2006-023A,2026-07-12T19:52:53.842080,1.00271154,.0002438,0.0377,111.3355,11.0191,7.5822,0,U,29236,999,7323,0,-.127E-5,0
EUTELSAT 33F,2006-032A,2026-07-12T18:48:03.569760,1.00270458,.0003386,1.7253,81.9577,26.8077,136.9800,0,U,29270,999,4756,0,.153E-5,0
