NIMIQ 2                 
1 27632U 02062A   26193.61267419 -.00000077  00000+0  00000+0 0  9990
2 27632   9.5024  56.6251 0005251  53.5734 291.6630  1.00270148 44432
USA 167                 
1 27691U 03008A   26193.23933588 -.00000003  00000+0  00000+0 0  9990
2 27691  11.0090  43.1794 0003323 309.3979 261.9864  1.00270391  7025
USA 169 (MILSTAR-2 4)   
1 27711U 03012A   26193.47059976 -.00000204  00000+0  00000+0 0  9997
2 27711  12.3864  29.6308 0099256  10.1730 212.1097  1.00273573 33203
ASIASAT 4               
1 27718U 03014A   26193.46065773 -.00000226  00000+0  00000+0 0  9991
2 27718   4.7666  75.4291 0002908  37.1528 131.1419  1.00270354 45550
HELLAS-SAT 2            
1 27811U 03020A   26193.41839748 -.00000090  00000+0  00000+0 0  9997
2 27811   7.4147  67.5792 0003496  80.1661 283.1588  1.00271316 43108
THURAYA-2               
1 27825U 03026A   26193.71421816  .00000118  00000+0  00000+0 0  9994
2 27825   8.8779  31.8585 0002546  24.4409 175.4260  1.00272897 84604
OPTUS C1                
1 27831U 03028B   26193.46363937 -.00000158  00000+0  00000+0 0  9999
2 27831   6.9502  69.1002 0005191  39.8646 144.0159  1.00269392 53313
USA 170                 
1 27875U 03040A   26192.82206185  .00000121  00000+0  00000+0 0  9990
2 27875  10.5501  47.7102 0001761  81.9616 120.2124  1.00274052 33245
GALAXY 13 (HORIZONS-1)  
1 27954U 03044A   26193.74715580  .00000131  00000+0  00000+0 0  9999
2 27954   1.4833  83.5390 0002151  25.8486 300.2105  1.00270182 46820
YAMAL 202               
1 28089U 03053A   26193.48169984 -.00000086  00000+0  00000+0 0  9991
2 28089   6.4039  70.6302 0003286  38.8738 157.8281  1.00272147 82955
UFO 11 (USA 174)        
1 28117U 03057A   26193.87193514 -.00000111  00000+0  00000+0 0  9995
2 28117   8.9550  33.6980 0002665  91.4203 195.1201  1.00270261 82700
USA 176 (DSP 22)        
1 28158U 04004A   26193.43686169 -.00000303  00000+0  00000+0 0  9991
2 28158  12.0954  25.8786 0001126 286.0293  86.3069  1.00266643 33199
ABS-4 (MOBISAT-1)       
1 28184U 04007A   26193.75808811  .00000033  00000+0  00000+0 0  9997
2 28184   6.1038  71.6949 0004617  41.0425 151.7584  1.00272794 52597
INTELSAT 10-02          
1 28358U 04022A   26193.84792359 -.00000012  00000+0  00000+0 0  9994
2 28358   0.0534 253.1014 0000558 346.0698 355.8081  1.00272095 80813
ANIK F2                 
1 28378U 04027A   26193.61224087 -.00000053  00000+0  00000+0 0  9999
2 28378   3.3507  79.1062 0003546  31.1280 289.5466  1.00271175 41511
AMC-15                  
1 28446U 04041A   26193.30739295 -.00000087  00000+0  00000+0 0  9996
2 28446   0.0346 304.3045 0002264 184.5757 166.9270  1.00271234 79556
NSS-10                  
1 28526U 05003A   26193.48424006 -.00000257  00000+0  00000+0 0  9993
2 28526   6.5104  70.1422 0002581  38.3504 318.7599  1.00270825 53405
INMARSAT 4-F1           
1 28628U 05009A   26193.32475437  .00000030  00000+0  00000+0 0  9997
2 28628   5.2012  42.7812 0002473  73.2040 109.2466  1.00271047 77929
DIRECTV 8               
1 28659U 05019A   26193.61068086  .00000002  00000+0  00000+0 0  9991
2 28659   0.0142 328.2419 0002926 156.8800 266.1680  1.00268966 77321
GALAXY 28 (G-28)        
1 28702U 05022A   26193.84281022 -.00000204  00000+0  00000+0 0  9991
2 28702   3.3625  78.6177 0002307  31.1693  97.2433  1.00270767 52231
THAICOM 4               
1 28786U 05028A   26193.80049413 -.00000363  00000+0  00000+0 0  9997
2 28786   0.3090  85.5406 0001389   7.8217 244.9935  1.00270927 52505
ANIK F1R                
1 28868U 05036A   26193.61302087 -.00000079  00000+0  00000+0 0  9999
2 28868   4.3751  76.2633 0003707  27.4467 300.1787  1.00271300 46705
SYRACUSE 3A             
1 28885U 05041B   26193.78603463  .00000124  00000+0  00000+0 0  9994
2 28885   4.7053  75.5251 0002743  30.9472 153.8022  1.00273066 76007
INMARSAT 4-F2           
1 28899U 05044A   26193.80526082 -.00000265  00000+0  00000+0 0  9993
2 28899   5.1278  43.6557 0002787  59.6525 260.7706  1.00270758 75771
METEOSAT-9 (MSG-2)      
1 28912U 05049B   26193.71456483  .00000116  00000+0  00000+0 0  9995
2 28912   9.4169  53.9114 0002069 356.4879 183.1097  1.00270809  7255
EUTELSAT 174A           
1 28924U 05052A   26193.81132752  .00000003  00000+0  00000+0 0  9998
2 28924   4.2811  76.2091 0005771  37.7871 282.7275  1.00270482 52588
ECHOSTAR 10             
1 28935U 06003A   26193.61241419 -.00000055  00000+0  00000+0 0  9994
2 28935   0.0354 307.6587 0001064 139.5835 313.5489  1.00270605 74715
SPAINSAT                
1 28945U 06007A   26193.27792940 -.00000216  00000+0  00000+0 0  9990
2 28945   0.6256  86.1044 0004606  24.6291 249.3073  1.00270006 74467
JCSAT-5A                
1 29045U 06010A   26193.73172904 -.00000329  00000+0  00000+0 0  9994
2 29045   1.1729  83.9313 0001640  23.9731 218.1742  1.00270416 74024
ASTRA 1KR               
1 29055U 06012A   26193.84489405  .00000117  00000+0  00000+0 0  9990
2 29055   0.5377  83.1795 0003290  20.9104 149.8052  1.00269320 45953
GALAXY 16 (G-16)        
1 29236U 06023A   26193.82840095 -.00000127  00000+0  00000+0 0  9999
2 29236   0.0377 111.3355 0002438  11.0191   7.5822  1.00271154 73230
EUTELSAT 33F            
1 29270U 06032A   26193.78337465  .00000153  00000+0  00000+0 0  9992
2 29270   1.7253  81.9577 0003386  26.8077 136.9800  1.00270458 47563
